[{"OBJECT_NAME":"CUBEBUG-2 (LO-74)","OBJECT_ID":"2013-066AA","EPOCH":"2026-03-09T19:57:37.220256","MEAN_MOTION":14.92958446,"ECCENTRICITY":0.00587054,"INCLINATION":97.8812,"RA_OF_ASC_NODE":17.505,"ARG_OF_PERICENTER":358.4894,"MEAN_ANOMALY":1.6138,"EPHEMERIS_TYPE":0,"CLASSIFICATION_TYPE":"U","NORAD_CAT_ID":39440,"ELEMENT_SET_NO":999,"REV_AT_EPOCH":66216,"BSTAR":0.0005932098,"MEAN_MOTION_DOT":6.31e-5,"MEAN_MOTION_DDOT":0},{"OBJECT_NAME":"STARLINK-5591","OBJECT_ID":"2023-028AG","EPOCH":"2026-03-09T19:46:08.982048","MEAN_MOTION":14.98331041,"ECCENTRICITY":0.00030516,"INCLINATION":69.9995,"RA_OF_ASC_NODE":224.0962,"ARG_OF_PERICENTER":271.1011,"MEAN_ANOMALY":88.9798,"EPHEMERIS_TYPE":0,"CLASSIFICATION_TYPE":"U","NORAD_CAT_ID":55771,"ELEMENT_SET_NO":999,"REV_AT_EPOCH":16655,"BSTAR":0.00012836784,"MEAN_MOTION_DOT":1.439e-5,"MEAN_MOTION_DDOT":0}]
